CTC1_L_00304016-03
1 87676U 23929QR  26037.47804398  .00000000  00000+0  00000-0 0  9999
2 87676  85.0000 180.0000 0000000   0.0000   0.0000 14.70334339    16
CTC1_L_00304016-04
1 87677U 25654FL  26037.47804398  .00000000  00000+0  00000-0 0  9997
2 87677  85.0000 180.0000 0000000   0.0000  90.0000 14.70334339    16
CTC1_L_00304017-01
1 87678U 26777KB  26037.47804398  .00000000  00000+0  00000-0 0  9995
2 87678  85.0000 192.0000 0000000   0.0000 192.0000 14.70334339    13
CTC1_L_00304017-02
1 87679U 24668IK  26037.47804398  .00000000  00000+0  00000-0 0  9993
2 87679  85.0000 192.0000 0000000   0.0000 282.0000 14.70334339    14
CTC1_L_00304017-03
1 87680U 23888KR  26037.47804398  .00000000  00000+0  00000-0 0  9998
2 87680  85.0000 192.0000 0000000   0.0000  12.0000 14.70334339    17
CTC1_L_00304017-04
1 87681U 22084IN  26037.47804398  .00000000  00000+0  00000-0 0  9996
2 87681  85.0000 192.0000 0000000   0.0000 102.0000 14.70334339    18
CTC1_L_00304018-01
1 87682U 22014EJ  26037.47804398  .00000000  00000+0  00000-0 0  9990
2 87682  85.0000 204.0000 0000000   0.0000 204.0000 14.70334339    16
CTC1_L_00304018-02
1 87683U 25912YV  26037.47804398  .00000000  00000+0  00000-0 0  9991
2 87683  85.0000 204.0000 0000000   0.0000 294.0000 14.70334339    16
CTC1_L_00304018-03
1 87684U 25662UO  26037.47804398  .00000000  00000+0  00000-0 0  9994
2 87684  85.0000 204.0000 0000000   0.0000  24.0000 14.70334339    18
CTC1_L_00304018-04
1 87685U 25249HH  26037.47804398  .00000000  00000+0  00000-0 0  9996
2 87685  85.0000 204.0000 0000000   0.0000 114.0000 14.70334339    19
CTC1_L_00304019-01
1 87686U 25123VU  26037.47804398  .00000000  00000+0  00000-0 0  9998
2 87686  85.0000 216.0000 0000000   0.0000 216.0000 14.70334339    16
CTC1_L_00304019-02
1 87687U 25213SC  26037.47804398  .00000000  00000+0  00000-0 0  9999
2 87687  85.0000 216.0000 0000000   0.0000 306.0000 14.70334339    17
CTC1_L_00304019-03
1 87688U 24513TB  26037.47804398  .00000000  00000+0  00000-0 0  9992
2 87688  85.0000 216.0000 0000000   0.0000  36.0000 14.70334339    18
CTC1_L_00304019-04
1 87689U 26826TS  26037.47804398  .00000000  00000+0  00000-0 0  9992
2 87689  85.0000 216.0000 0000000   0.0000 126.0000 14.70334339    19
CTC1_L_00304020-01
1 87690U 24815LU  26037.47804398  .00000000  00000+0  00000-0 0  9990
2 87690  85.0000 228.0000 0000000   0.0000 228.0000 14.70334339    17
CTC1_L_00304020-02
1 87691U 23733MK  26037.47804398  .00000000  00000+0  00000-0 0  9999
2 87691  85.0000 228.0000 0000000   0.0000 318.0000 14.70334339    18
CTC1_L_00304020-03
1 87692U 25637TC  26037.47804398  .00000000  00000+0  00000-0 0  9995
2 87692  85.0000 228.0000 0000000   0.0000  48.0000 14.70334339    19
CTC1_L_00304020-04
1 87693U 25253WB  26037.47804398  .00000000  00000+0  00000-0 0  9990
2 87693  85.0000 228.0000 0000000   0.0000 138.0000 14.70334339    10
CTC1_L_00304021-01
1 87694U 26468HV  26037.47804398  .00000000  00000+0  00000-0 0  9990
2 87694  85.0000 240.0000 0000000   0.0000 240.0000 14.70334339    19
CTC1_L_00304021-02
1 87695U 22112PT  26037.47804398  .00000000  00000+0  00000-0 0  9993
2 87695  85.0000 240.0000 0000000   0.0000 330.0000 14.70334339    10
CTC1_L_00304021-03
1 87696U 24530MC  26037.47804398  .00000000  00000+0  00000-0 0  9990
2 87696  85.0000 240.0000 0000000   0.0000  60.0000 14.70334339    11
CTC1_L_00304021-04
1 87697U 23374LQ  26037.47804398  .00000000  00000+0  00000-0 0  9996
2 87697  85.0000 240.0000 0000000   0.0000 150.0000 14.70334339    12
CTC1_L_00304022-01
1 87698U 22059HX  26037.47804398  .00000000  00000+0  00000-0 0  9996
2 87698  85.0000 252.0000 0000000   0.0000 252.0000 14.70334339    19
CTC1_L_00304022-02
1 87699U 22066CW  26037.47804398  .00000000  00000+0  00000-0 0  9995
2 87699  85.0000 252.0000 0000000   0.0000 342.0000 14.70334339    10
CTC1_L_00304022-03
1 87700U 23108GI  26037.47804398  .00000000  00000+0  00000-0 0  9996
2 87700  85.0000 252.0000 0000000   0.0000  72.0000 14.70334339    13
CTC1_L_00304022-04
1 87701U 22866WF  26037.47804398  .00000000  00000+0  00000-0 0  9997
2 87701  85.0000 252.0000 0000000   0.0000 162.0000 14.70334339    14
CTC1_L_00304023-01
1 87702U 22989NR  26037.47804398  .00000000  00000+0  00000-0 0  9994
2 87702  85.0000 264.0000 0000000   0.0000 264.0000 14.70334339    11
CTC1_L_00304023-02
1 87703U 22418VK  26037.47804398  .00000000  00000+0  00000-0 0  9992
2 87703  85.0000 264.0000 0000000   0.0000 354.0000 14.70334339    12
CTC1_L_00304023-03
1 87704U 24727TC  26037.47804398  .00000000  00000+0  00000-0 0  9998
2 87704  85.0000 264.0000 0000000   0.0000  84.0000 14.70334339    13
CTC1_L_00304023-04
1 87705U 23017SB  26037.47804398  .00000000  00000+0  00000-0 0  9990
2 87705  85.0000 264.0000 0000000   0.0000 174.0000 14.70334339    14
CTC1_L_00304024-01
1 87706U 22412KR  26037.47804398  .00000000  00000+0  00000-0 0  9999
2 87706  85.0000 276.0000 0000000   0.0000 276.0000 14.70334339    11
CTC1_L_00304024-02
1 87707U 26822ZX  26037.47804398  .00000000  00000+0  00000-0 0  9999
2 87707  85.0000 276.0000 0000000   0.0000   6.0000 14.70334339    13
CTC1_L_00304024-03
1 87708U 23126QR  26037.47804398  .00000000  00000+0  00000-0 0  9994
2 87708  85.0000 276.0000 0000000   0.0000  96.0000 14.70334339    13
CTC1_L_00304024-04
1 87709U 23914PE  26037.47804398  .00000000  00000+0  00000-0 0  9990
2 87709  85.0000 276.0000 0000000   0.0000 186.0000 14.70334339    14
CTC1_L_00304025-01
1 87710U 24319AL  26037.47804398  .00000000  00000+0  00000-0 0  9992
2 87710  85.0000 288.0000 0000000   0.0000 288.0000 14.70334339    12
CTC1_L_00304025-02
1 87711U 24097DT  26037.47804398  .00000000  00000+0  00000-0 0  9996
2 87711  85.0000 288.0000 0000000   0.0000  18.0000 14.70334339    14
CTC1_L_00304025-03
1 87712U 24825EN  26037.47804398  .00000000  00000+0  00000-0 0  9996
2 87712  85.0000 288.0000 0000000   0.0000 108.0000 14.70334339    15
CTC1_L_00304025-04
1 87713U 22305FE  26037.47804398  .00000000  00000+0  00000-0 0  9998
2 87713  85.0000 288.0000 0000000   0.0000 198.0000 14.70334339    15
CTC1_L_00304026-01
1 87714U 22668IL  26037.47804398  .00000000  00000+0  00000-0 0  9991
2 87714  85.0000 300.0000 0000000   0.0000 300.0000 14.70334339    16
CTC1_L_00304026-02
1 87715U 24961PK  26037.47804398  .00000000  00000+0  00000-0 0  9990
2 87715  85.0000 300.0000 0000000   0.0000  30.0000 14.70334339    17
CTC1_L_00304026-03
1 87716U 25928KG  26037.47804398  .00000000  00000+0  00000-0 0  9995
2 87716  85.0000 300.0000 0000000   0.0000 120.0000 14.70334339    18
CTC1_L_00304026-04
1 87717U 25824KG  26037.47804398  .00000000  00000+0  00000-0 0  9991
2 87717  85.0000 300.0000 0000000   0.0000 210.0000 14.70334339    19
CTC1_L_00304027-01
1 87718U 24573SE  26037.47804398  .00000000  00000+0  00000-0 0  9992
2 87718  85.0000 312.0000 0000000   0.0000 312.0000 14.70334339    16
CTC1_L_00304027-02
1 87719U 26453ZE  26037.47804398  .00000000  00000+0  00000-0 0  9992
2 87719  85.0000 312.0000 0000000   0.0000  42.0000 14.70334339    17
CTC1_L_00304027-03
1 87720U 24541DC  26037.47804398  .00000000  00000+0  00000-0 0  9990
2 87720  85.0000 312.0000 0000000   0.0000 132.0000 14.70334339    19
CTC1_L_00304027-04
1 87721U 25822VH  26037.47804398  .00000000  00000+0  00000-0 0  9994
2 87721  85.0000 312.0000 0000000   0.0000 222.0000 14.70334339    10
CTC1_L_00304028-01
1 87722U 22933BA  26037.47804398  .00000000  00000+0  00000-0 0  9995
2 87722  85.0000 324.0000 0000000   0.0000 324.0000 14.70334339    17
CTC1_L_00304028-02
1 87723U 26439ZC  26037.47804398  .00000000  00000+0  00000-0 0  9991
2 87723  85.0000 324.0000 0000000   0.0000  54.0000 14.70334339    18
CTC1_L_00304028-03
1 87724U 22909BP  26037.47804398  .00000000  00000+0  00000-0 0  9990
2 87724  85.0000 324.0000 0000000   0.0000 144.0000 14.70334339    19
CTC1_L_00304028-04
1 87725U 23006LY  26037.47804398  .00000000  00000+0  00000-0 0  9990
2 87725  85.0000 324.0000 0000000   0.0000 234.0000 14.70334339    10
CTC1_L_00304029-01
1 87726U 23301DN  26037.47804398  .00000000  00000+0  00000-0 0  9999
2 87726  85.0000 336.0000 0000000   0.0000 336.0000 14.70334339    17
CTC1_L_00304029-02
1 87727U 23511YS  26037.47804398  .00000000  00000+0  00000-0 0  9993
2 87727  85.0000 336.0000 0000000   0.0000  66.0000 14.70334339    18
CTC1_L_00304029-03
1 87728U 24228UQ  26037.47804398  .00000000  00000+0  00000-0 0  9990
2 87728  85.0000 336.0000 0000000   0.0000 156.0000 14.70334339    19
CTC1_L_00304029-04
1 87729U 22673RT  26037.47804398  .00000000  00000+0  00000-0 0  9993
2 87729  85.0000 336.0000 0000000   0.0000 246.0000 14.70334339    10
CTC1_L_00304030-01
1 87730U 22269PU  26037.47804398  .00000000  00000+0  00000-0 0  9996
2 87730  85.0000 348.0000 0000000   0.0000 348.0000 14.70334339    18
CTC1_L_00304030-02
1 87731U 22153R   26037.47804398  .00000000  00000+0  00000-0 0  9999
2 87731  85.0000 348.0000 0000000   0.0000  78.0000 14.70334339    19
CTC1_L_00304030-03
1 87732U 24627AW  26037.47804398  .00000000  00000+0  00000-0 0  9998
2 87732  85.0000 348.0000 0000000   0.0000 168.0000 14.70334339    10
CTC1_L_00304030-04
1 87733U 23489ZV  26037.47804398  .00000000  00000+0  00000-0 0  9994
2 87733  85.0000 348.0000 0000000   0.0000 258.0000 14.70334339    11
